{
  "type": "FeatureCollection",
  "features": [
    {
      "type": "Feature",
      "properties": {
        "norad_id": 37484,
        "name": "COSMOS 2251 DEB",
        "group": "cosmos-2251-debris",
        "lat": 24.38688340050327,
        "lon": -143.21057720543791,
        "alt_km": 773.9089851454291,
        "timestamp": "2025-12-12T07:43:20.913615+00:00",
        "meta_object_name": "COSMOS 2251 DEB",
        "meta_object_id": "1993-036BLM",
        "meta_epoch": "2025-12-08T23:58:05.079360",
        "meta_mean_motion": 14.41757676,
        "meta_eccentricity": 0.0040001,
        "meta_inclination": 73.8236,
        "meta_ra_of_asc_node": 215.4631,
        "meta_arg_of_pericenter": 250.9229,
        "meta_mean_anomaly": 173.1342,
        "meta_ephemeris_type": 0,
        "meta_classification_type": "U",
        "meta_norad_cat_id": 37484,
        "meta_element_set_no": 999,
        "meta_rev_at_epoch": 65325,
        "meta_bstar": 0.00081064,
        "meta_mean_motion_dot": 2.644e-05,
        "meta_mean_motion_ddot": 0,
        "tle_line1": "1 37484U 93036BLM 25342.99866990  .00002644  00000+0  81064-3 0  9996",
        "tle_line2": "2 37484  73.8236 215.4631 0040001 250.9229 173.1342 14.41757676653253"
      },
      "geometry": {
        "type": "Point",
        "coordinates": [
          -143.21057720543791,
          24.38688340050327
        ]
      }
    },
    {
      "type": "Feature",
      "properties": {
        "norad_id": 37486,
        "name": "COSMOS 2251 DEB",
        "group": "cosmos-2251-debris",
        "lat": -32.15569528251064,
        "lon": 104.74975721145388,
        "alt_km": 695.2339071282177,
        "timestamp": "2025-12-12T07:43:20.913625+00:00",
        "meta_object_name": "COSMOS 2251 DEB",
        "meta_object_id": "1993-036BLP",
        "meta_epoch": "2025-12-08T15:36:14.085792",
        "meta_mean_motion": 14.13268533,
        "meta_eccentricity": 0.0229186,
        "meta_inclination": 73.6904,
        "meta_ra_of_asc_node": 121.9918,
        "meta_arg_of_pericenter": 350.7921,
        "meta_mean_anomaly": 22.951,
        "meta_ephemeris_type": 0,
        "meta_classification_type": "U",
        "meta_norad_cat_id": 37486,
        "meta_element_set_no": 999,
        "meta_rev_at_epoch": 63312,
        "meta_bstar": 0.0028521,
        "meta_mean_motion_dot": 6.844e-05,
        "meta_mean_motion_ddot": 0,
        "tle_line1": "1 37486U 93036BLP 25342.65016303  .00006844  00000+0  28521-2 0  9990",
        "tle_line2": "2 37486  73.6904 121.9918 0229186 350.7921  22.9510 14.13268533633125"
      },
      "geometry": {
        "type": "Point",
        "coordinates": [
          104.74975721145388,
          -32.15569528251064
        ]
      }
    },
    {
      "type": "Feature",
      "properties": {
        "norad_id": 37487,
        "name": "COSMOS 2251 DEB",
        "group": "cosmos-2251-debris",
        "lat": -40.14342909104878,
        "lon": 178.82386000709909,
        "alt_km": 627.2515628409155,
        "timestamp": "2025-12-12T07:43:20.913636+00:00",
        "meta_object_name": "COSMOS 2251 DEB",
        "meta_object_id": "1993-036BLQ",
        "meta_epoch": "2025-12-09T23:09:56.223648",
        "meta_mean_motion": 14.80815093,
        "meta_eccentricity": 0.00253501,
        "meta_inclination": 73.9017,
        "meta_ra_of_asc_node": 197.6051,
        "meta_arg_of_pericenter": 36.1899,
        "meta_mean_anomaly": 324.0985,
        "meta_ephemeris_type": 0,
        "meta_classification_type": "U",
        "meta_norad_cat_id": 37487,
        "meta_element_set_no": 999,
        "meta_rev_at_epoch": 81204,
        "meta_bstar": 0.0039104448,
        "meta_mean_motion_dot": 0.00030433,
        "meta_mean_motion_ddot": 0,
        "tle_line1": "1 37487U 93036BLQ 25343.96523407  .00030433  00000+0  39104-2 0  9994",
        "tle_line2": "2 37487  73.9017 197.6051 0025350  36.1899 324.0985 14.80815093812043"
      },
      "geometry": {
        "type": "Point",
        "coordinates": [
          178.82386000709909,
          -40.14342909104878
        ]
      }
    },
    {
      "type": "Feature",
      "properties": {
        "norad_id": 37491,
        "name": "COSMOS 2251 DEB",
        "group": "cosmos-2251-debris",
        "lat": -52.16610017259121,
        "lon": 116.6160074625765,
        "alt_km": 788.57328015846,
        "timestamp": "2025-12-12T07:43:20.913646+00:00",
        "meta_object_name": "COSMOS 2251 DEB",
        "meta_object_id": "1993-036BLU",
        "meta_epoch": "2025-12-11T13:05:52.435392",
        "meta_mean_motion": 13.75285056,
        "meta_eccentricity": 0.03174282,
        "meta_inclination": 73.9058,
        "meta_ra_of_asc_node": 276.0936,
        "meta_arg_of_pericenter": 269.3893,
        "meta_mean_anomaly": 87.0852,
        "meta_ephemeris_type": 0,
        "meta_classification_type": "U",
        "meta_norad_cat_id": 37491,
        "meta_element_set_no": 999,
        "meta_rev_at_epoch": 55730,
        "meta_bstar": 0.0017999134,
        "meta_mean_motion_dot": 2.468e-05,
        "meta_mean_motion_ddot": 0,
        "tle_line1": "1 37491U 93036BLU 25345.54574578  .00002468  00000+0  17999-2 0  9995",
        "tle_line2": "2 37491  73.9058 276.0936 0317428 269.3893  87.0852 13.75285056557308"
      },
      "geometry": {
        "type": "Point",
        "coordinates": [
          116.6160074625765,
          -52.16610017259121
        ]
      }
    },
    {
      "type": "Feature",
      "properties": {
        "norad_id": 37498,
        "name": "COSMOS 2251 DEB",
        "group": "cosmos-2251-debris",
        "lat": 14.646284506085413,
        "lon": 0.3852217421261798,
        "alt_km": 709.5607720311764,
        "timestamp": "2025-12-12T07:43:20.913656+00:00",
        "meta_object_name": "COSMOS 2251 DEB",
        "meta_object_id": "1993-036BMB",
        "meta_epoch": "2025-12-10T07:06:15.238080",
        "meta_mean_motion": 14.54745919,
        "meta_eccentricity": 0.0012071,
        "meta_inclination": 74.0358,
        "meta_ra_of_asc_node": 188.5072,
        "meta_arg_of_pericenter": 251.507,
        "meta_mean_anomaly": 108.4781,
        "meta_ephemeris_type": 0,
        "meta_classification_type": "U",
        "meta_norad_cat_id": 37498,
        "meta_element_set_no": 999,
        "meta_rev_at_epoch": 65319,
        "meta_bstar": 0.0008921,
        "meta_mean_motion_dot": 3.798e-05,
        "meta_mean_motion_ddot": 0,
        "tle_line1": "1 37498U 93036BMB 25344.29600970  .00003798  00000+0  89210-3 0  9992",
        "tle_line2": "2 37498  74.0358 188.5072 0012071 251.5070 108.4781 14.54745919653194"
      },
      "geometry": {
        "type": "Point",
        "coordinates": [
          0.3852217421261798,
          14.646284506085413
        ]
      }
    },
    {
      "type": "Feature",
      "properties": {
        "norad_id": 37499,
        "name": "COSMOS 2251 DEB",
        "group": "cosmos-2251-debris",
        "lat": 45.490279910667596,
        "lon": -20.11576891521696,
        "alt_km": 753.9891274840575,
        "timestamp": "2025-12-12T07:43:20.913667+00:00",
        "meta_object_name": "COSMOS 2251 DEB",
        "meta_object_id": "1993-036BMC",
        "meta_epoch": "2025-12-10T05:17:01.570848",
        "meta_mean_motion": 14.34338479,
        "meta_eccentricity": 0.0026827,
        "meta_inclination": 74.0377,
        "meta_ra_of_asc_node": 326.8027,
        "meta_arg_of_pericenter": 43.5901,
        "meta_mean_anomaly": 316.7364,
        "meta_ephemeris_type": 0,
        "meta_classification_type": "U",
        "meta_norad_cat_id": 37499,
        "meta_element_set_no": 999,
        "meta_rev_at_epoch": 85113,
        "meta_bstar": 0.00027087,
        "meta_mean_motion_dot": 7.38e-06,
        "meta_mean_motion_ddot": 0,
        "tle_line1": "1 37499U 93036BMC 25344.22015707  .00000738  00000+0  27087-3 0  9999",
        "tle_line2": "2 37499  74.0377 326.8027 0026827  43.5901 316.7364 14.34338479851131"
      },
      "geometry": {
        "type": "Point",
        "coordinates": [
          -20.11576891521696,
          45.490279910667596
        ]
      }
    },
    {
      "type": "Feature",
      "properties": {
        "norad_id": 37528,
        "name": "COSMOS 2251 DEB",
        "group": "cosmos-2251-debris",
        "lat": 0.9076743914111184,
        "lon": -57.337284901437265,
        "alt_km": 726.9613243939111,
        "timestamp": "2025-12-12T07:43:20.913677+00:00",
        "meta_object_name": "COSMOS 2251 DEB",
        "meta_object_id": "1993-036BNH",
        "meta_epoch": "2025-12-11T16:00:02.560320",
        "meta_mean_motion": 14.50514088,
        "meta_eccentricity": 0.00210781,
        "meta_inclination": 74.0369,
        "meta_ra_of_asc_node": 124.1531,
        "meta_arg_of_pericenter": 272.3506,
        "meta_mean_anomaly": 87.5241,
        "meta_ephemeris_type": 0,
        "meta_classification_type": "U",
        "meta_norad_cat_id": 37528,
        "meta_element_set_no": 999,
        "meta_rev_at_epoch": 85915,
        "meta_bstar": 0.00080165521,
        "meta_mean_motion_dot": 3.121e-05,
        "meta_mean_motion_ddot": 0,
        "tle_line1": "1 37528U 93036BNH 25345.66669630  .00003121  00000+0  80166-3 0  9997",
        "tle_line2": "2 37528  74.0369 124.1531 0021078 272.3506  87.5241 14.50514088859157"
      },
      "geometry": {
        "type": "Point",
        "coordinates": [
          -57.337284901437265,
          0.9076743914111184
        ]
      }
    }
  ]
}